HST                     
1 20580U 90037B   26200.21572411  .00003033  00000+0  90734-4 0  9992
2 20580  28.4722 221.6112 0002141 143.1393 216.9350 15.31084186793483
POLAR                   
1 23802U 96013A   26198.07629098  .00000165  00000+0  00000+0 0  9991
2 23802  79.8950 226.6973 6500355 208.0495  91.8485  1.29846054145242
SWAS                    
1 25560U 98071A   26200.28299041  .00001572  00000+0  10367-3 0  9992
2 25560  69.8944 144.7401 0007644 226.0224 134.0311 15.09761877502113
CXO                     
1 25867U 99040B   26201.11356867  .00000551  00000+0  00000+0 0  9997
2 25867  56.6395 115.7467 7780937 310.0076   0.5836  0.37806069 17440
XMM-NEWTON              
1 25989U 99066A   26201.25992622 -.00000007  00000+0  00000+0 0  9997
2 25989  64.3074 282.5600 4664570  64.3171   0.0365  0.50127970 23163
TERRA                   
1 25994U 99068A   26200.27316722  .00000163  00000+0  42191-4 0  9991
2 25994  97.9438 248.5443 0003555 114.9038 309.9464 14.61125488414290
CLUSTER II-FM7 (SAMBA)  
1 26410U 00041A   26201.60153466  .00010309 -30419-5  00000+0 0  9995
2 26410 149.8022  56.9138 9091735 274.4937 359.4015  0.44849809 20468
CLUSTER II-FM8 (TANGO)  
1 26464U 00045B   26199.95353872  .00014907 -89767-5  00000+0 0  9993
2 26464 150.0091  57.8386 9095648 275.2395   2.0585  0.44423357 20454
ODIN                    
1 26702U 01007A   26200.08086064  .00298292  35381-4  91877-3 0  9998
2 26702  97.3680 243.4023 0005054 151.8362 208.3186 15.91757329394441
TIMED                   
1 26998U 01055B   26200.05500985  .00000531  00000+0  51774-4 0  9993
2 26998  74.0668 170.8498 0002323 296.3887  63.7059 14.95349095335580
CORIOLIS                
1 27640U 03001A   26199.97683465  .00000035  00000+0  36916-4 0  9994
2 27640  98.7135 206.3773 0015063 119.1084 241.1603 14.19952468218738
SORCE                   
1 27651U 03004A   26200.01651124  .00001237  00000+0  98977-4 0  9994
2 27651  39.9916  80.0556 0018755 280.0785  79.7893 15.03852593276694
MOST                    
1 27843U 03031D   26200.31215307  .00000010  00000+0  24619-4 0  9999
2 27843  98.7054 207.5907 0010328 153.6620 206.5084 14.21328191195277
SCISAT 1                
1 27858U 03036A   26200.16677642  .00000258  00000+0  37654-4 0  9994
2 27858  73.9302 107.8039 0007175 174.8549 185.2703 14.81481367236181
SWIFT                   
1 28485U 04047A   26199.57643796  .00039733  00000+0  28862-3 0  9999
2 28485  20.5525 302.2090 0002527  57.1497 302.9192 15.71432448191807
HINODE (SOLAR-B)        
1 29479U 06041A   26200.27506691  .00000268  00000+0  54445-4 0  9999
2 29479  98.0548 215.9548 0017369 181.3432 178.7729 14.68660982 59587
SHIJIAN-6 02A (SJ-6 02A)
1 29505U 06046A   26200.27816706  .00002328  00000+0  12042-3 0  9990
2 29505  97.6336 241.5898 0003980  55.5728 304.5881 15.17268896 77136
SHIJIAN-6 02B (SJ-6 02B)
1 29506U 06046B   26200.26945809  .00000233  00000+0  22786-4 0  9997
2 29506  97.7138 229.1292 0012894 321.7344  38.2964 15.01440973 75552
FGRST (GLAST)           
1 33053U 08029A   26199.72212140  .00001797  00000+0  58465-4 0  9994
2 33053  25.5830 345.4947 0007946 342.2061  17.8198 15.24087847   504
SDO                     
1 36395U 10005A   26200.24111708 -.00000094  00000+0  00000+0 0  9998
2 36395  34.7163  85.8540 0001721  43.5863 152.2121  1.00277469 60389
CRYOSAT 2               
1 36508U 10013A   26200.26723585  .00000075  00000+0  17970-4 0  9994
2 36508  92.0356 285.1004 0002443  98.8336 261.3148 14.51899212862732
X-SAT                   
1 37389U 11015C   26200.23908153  .00000080  00000+0  51455-4 0  9990
2 37389  98.3536 175.7396 0012764 247.6578 112.3250 14.25214867792241
GCOM-W1 (SHIZUKU)       
1 38337U 12025A   26200.32619184  .00000191  00000+0  52357-4 0  9994
2 38337  98.2024 140.3958 0001282  79.1582  80.9669 14.57092107753713
NUSTAR                  
1 38358U 12031A   26200.33335648  .00015601  00000+0  90076-3 0  9996
2 38358   6.0259 152.9413 0009041 230.7545   0.1200 15.09056671  1303
NEOSSAT                 
1 39089U 13009D   26200.05615430  .00000044  00000+0  30012-4 0  9993
2 39089  98.4193  19.3333 0011667 146.3081 213.8849 14.35836410701313
BRITE-AUSTRIA           
1 39091U 13009F   26200.24786334  .00000061  00000+0  35274-4 0  9993
2 39091  98.4012  18.8927 0010976 139.4138 220.7868 14.36553393701659
IRIS                    
1 39197U 13033A   26200.28595323  .00000470  00000+0  60042-4 0  9992
2 39197  97.9318  39.4617 0023597 211.0409 148.9413 14.85941485705147
HISAKI (SPRINT-A)       
1 39253U 13049A   26200.01826774  .00000090  00000+0  32482-4 0  9995
2 39253  29.7217  58.1761 0136973 274.8570  83.6375 13.55546941635742
CASSIOPE                
1 39265U 13055A   26200.27914895  .00015243 -53174-6  16303-3 0  9992
2 39265  80.9134  27.6612 0282109 314.0279  43.8014 15.27555285672565
STSAT-3                 
1 39422U 13066G   26200.27211177  .00002110  00000+0  16161-3 0  9995
2 39422  97.6207 169.6428 0008824 288.8422  71.1846 15.02902193689029
